{"spkid": "20368203", "covariance": {"epoch": "2453426.5", "elements": [{"title": "eccentricity", "value": ".6062733442736524", "units": null, "name": "e", "sigma": 5.91365333906596e-08, "label": "e"}, {"label": "q", "name": "q", "sigma": 1.57791789376205e-07, "title": "perihelion distance", "value": ".9873566758553639", "units": "au"}, {"sigma": 7.17997934379423e-05, "name": "tp", "value": "2453473.324981576605", "title": "time of perihelion passage", "units": "TDB", "label": "tp"}, {"name": "om", "sigma": 2.17558687025087e-05, "units": "deg", "title": "longitude of the ascending node", "value": "244.0133648799314", "label": "node"}, {"value": "326.5621605816408", "title": "argument of perihelion", "units": "deg", "name": "w", "sigma": 5.47556291274806e-05, "label": "peri"}, {"units": "deg", "title": "inclination", "value": "11.96917025542911", "sigma": 1.64605020586374e-05, "name": "i", "label": "i"}], "data": [["3.497129581464594E-15", "-9.309544584714004E-15", "-1.808377942956557E-12", "-3.543424883003533E-14", "-1.362644013940477E-12", "-1.039294770289388E-13"], ["-9.309544584714004E-15", "2.489824879454473E-14", "5.234300393318307E-12", "6.517026161193557E-14", "3.808764828979068E-12", "2.614574905391476E-13"], ["-1.808377942956557E-12", "5.234300393318307E-12", "5.155210337731186E-9", "-3.294951044379771E-10", "3.52853974138032E-9", "-8.408406254724285E-11"], ["-3.543424883003533E-14", "6.517026161193557E-14", "-3.294951044379771E-10", "4.733178230007971E-10", "-6.515843635171165E-10", "1.501639138524024E-10"], ["-1.362644013940477E-12", "3.808764828979068E-12", "3.52853974138032E-9", "-6.515843635171165E-10", "2.998178921146207E-9", "-1.776338258102647E-10"], ["-1.039294770289388E-13", "2.614574905391476E-13", "-8.408406254724285E-11", "1.501639138524024E-10", "-1.776338258102647E-10", "2.709481280224053E-10"]], "labels": ["e", "q", "tp", "node", "peri", "i"]}, "elements": [{"value": ".6179108407256036", "title": "eccentricity", "units": null, "sigma": "6.2308E-8", "name": "e", "label": "e"}, {"units": "au", "title": "semi-major axis", "value": "2.479121698459423", "name": "a", "sigma": "4.0701E-8", "label": "a"}, {"label": "q", "value": ".9472455255032746", "title": "perihelion distance", "units": "au", "sigma": "1.67E-7", "name": "q"}, {"label": "i", "title": "inclination; angle with respect to x-y ecliptic plane", "value": "12.46458140791345", "units": "deg", "name": "i", "sigma": "1.6901E-5"}, {"units": "deg", "value": "242.2771895842463", "title": "longitude of the ascending node", "sigma": "2.1116E-5", "name": "om", "label": "node"}, {"label": "peri", "units": "deg", "value": "328.8357901215657", "title": "argument of perihelion", "sigma": "4.7406E-5", "name": "w"}, {"sigma": "5.199E-5", "name": "ma", "title": "mean anomaly", "value": "130.72813566381", "units": "deg", "label": "M"}, {"label": "tp", "name": "tp", "sigma": ".00019376", "title": "time of perihelion passage", "value": "2460682.759947317952", "units": "TDB"}, {"label": "period", "value": "1425.755963084048", "title": "sidereal orbital period", "units": "d", "sigma": "3.5111E-5", "name": "per"}, {"units": "deg/d", "value": ".2524976288517743", "title": "mean motion", "sigma": "6.2181E-9", "name": "n", "label": "n"}, {"label": "Q", "value": "4.010997871415571", "title": "aphelion distance", "units": "au", "sigma": "6.5851E-8", "name": "ad"}], "epoch": "2461200.5"}